CSS (TIANHE)            
1 48274U 21035A   24040.39101793  .00043000  00000+0  45451-3 0  9997
2 48274  41.4685 150.0804 0007880 332.3092  27.7328 15.63352118158938
